[{"OBJECT_NAME":"STARLINK-30198","OBJECT_ID":"2023-096A","EPOCH":"2026-03-09T22:00:01.999584","MEAN_MOTION":15.15672992,"ECCENTRICITY":0.00017382,"INCLINATION":42.9995,"RA_OF_ASC_NODE":221.4881,"ARG_OF_PERICENTER":295.0997,"MEAN_ANOMALY":179.6566,"EPHEMERIS_TYPE":0,"CLASSIFICATION_TYPE":"U","NORAD_CAT_ID":57290,"ELEMENT_SET_NO":999,"REV_AT_EPOCH":567,"BSTAR":0.0050728772,"MEAN_MOTION_DOT":0.00099438,"MEAN_MOTION_DDOT":0},{"OBJECT_NAME":"FENGYUN 1C DEB","OBJECT_ID":"1999-025AMH","EPOCH":"2026-03-09T12:42:15.737184","MEAN_MOTION":15.14321833,"ECCENTRICITY":0.0006603,"INCLINATION":99.0205,"RA_OF_ASC_NODE":1.3766,"ARG_OF_PERICENTER":145.7382,"MEAN_ANOMALY":270.0225,"EPHEMERIS_TYPE":0,"CLASSIFICATION_TYPE":"U","NORAD_CAT_ID":30602,"ELEMENT_SET_NO":999,"REV_AT_EPOCH":99107,"BSTAR":0.010046779,"MEAN_MOTION_DOT":0.0018881,"MEAN_MOTION_DDOT":0}]
